OBJECT_NAME,OBJECT_ID,EPOCH,MEAN_MOTION,ECCENTRICITY,INCLINATION,RA_OF_ASC_NODE,ARG_OF_PERICENTER,MEAN_ANOMALY,EPHEMERIS_TYPE,CLASSIFICATION_TYPE,NORAD_CAT_ID,ELEMENT_SET_NO,REV_AT_EPOCH,BSTAR,MEAN_MOTION_DOT,MEAN_MOTION_DDOT
HODOYOSHI-4,2014-033B,2026-06-09T04:00:24.126624,14.88108424,.002324,97.5459,345.3771,336.1298,23.8840,0,U,40011,999,64761,.55469E-4,.46E-5,0
DEIMOS-2,2014-033D,2026-06-09T05:04:32.697120,14.93708884,.0002062,97.5839,34.9802,58.7750,301.3672,0,U,40013,999,63653,.22643E-3,.2341E-4,0
HODOYOSHI-3,2014-033F,2026-06-09T00:48:54.897408,14.85371568,.0033406,97.6412,323.4033,23.9696,336.3065,0,U,40015,999,64641,.11938E-3,.984E-5,0
SPOT 7,2014-034A,2026-06-09T04:02:24.891360,14.60952042,.0001173,98.0627,222.8664,84.9935,275.1400,0,U,40053,999,63596,.11298E-3,.508E-5,0
SKYSAT-B,2014-037D,2026-06-09T02:57:13.965120,14.88006530,.0004524,98.3834,118.6287,315.1194,44.9654,0,U,40072,999,64476,.13893E-3,.1214E-4,0
WORLDVIEW-3 (WV-3),2014-048A,2026-06-09T03:34:39.849312,14.85008642,.0001599,97.8565,235.0928,38.1675,321.9652,0,U,40115,999,64071,.919E-4,.731E-5,0
GAOFEN-2,2014-049A,2026-06-09T04:52:49.010592,14.80890714,.0005894,98.0107,224.4180,258.8115,101.2434,0,U,40118,999,63805,.10154E-3,.731E-5,0
YAOGAN-21,2014-053A,2026-06-09T03:56:39.072768,15.26253568,.0009796,97.1481,200.7448,116.5246,243.6999,0,U,40143,999,65373,.19703E-3,.5042E-4,0
YAOGAN-22,2014-063A,2026-06-09T02:58:57.455040,13.15530987,.000616,100.7714,311.2640,203.6209,156.4620,0,U,40275,999,55875,.85438E-4,-.15E-6,0
ASNARO,2014-070A,2026-06-09T04:34:10.604928,15.19317687,.0004811,97.3449,236.5212,190.3731,169.7405,0,U,40298,999,64279,.36075E-3,.7556E-4,0
YAOGAN-24,2014-072A,2026-06-09T05:15:59.735232,14.76213866,.0012668,98.1479,297.4907,292.0595,67.9269,0,U,40310,999,62254,.14362E-3,.941E-5,0
CBERS 4,2014-079A,2026-06-09T03:51:40.617792,14.35507172,.0001999,98.3531,217.2440,71.5701,288.5702,0,U,40336,999,60280,.52304E-4,.108E-5,0
YAOGAN-26,2014-088A,2026-06-09T05:50:05.969760,15.47033008,.0006631,97.0646,160.6405,85.0472,275.1536,0,U,40362,999,63647,.46725E-3,.23585E-3,0
SMAP,2015-003A,2026-06-09T03:33:26.086176,14.63359515,.0001273,98.1276,167.3567,93.5288,266.6060,0,U,40376,999,60644,.88416E-4,.41E-5,0
KOMPSAT-3A,2015-014A,2026-06-09T01:30:44.309376,15.53621130,.0055802,97.6887,150.8335,204.0181,155.8467,0,U,40536,999,62055,.30243E-3,.20547E-3,0
SENTINEL-2A,2015-028A,2026-06-09T04:08:43.273248,14.30821971,.0001074,98.5679,235.1379,87.2143,272.9162,0,U,40697,999,57258,.9929E-4,.217E-5,0
GAOFEN-8,2015-030A,2026-06-09T04:34:04.265760,15.45656621,.0008078,97.6917,353.0821,216.2826,143.7875,0,U,40701,999,61021,.30484E-3,.14626E-3,0
CARBONITE 1 (CBNT-1),2015-032D,2026-06-09T05:22:22.456128,14.83561067,.0013767,97.6511,338.6244,326.3614,33.6725,0,U,40718,999,58816,.10204E-3,.791E-5,0
YAOGAN-27,2015-040A,2026-06-09T04:45:42.997248,13.16068120,.0007492,100.1154,146.9281,230.5737,129.4714,0,U,40878,999,51661,-.64664E-3,-.288E-5,0
GAOFEN-9 01,2015-047A,2026-06-09T05:38:33.549792,14.82868402,.0027801,97.6278,196.2910,163.1669,197.0474,0,U,40894,999,57901,.11292E-3,.87E-5,0
YAOGAN-28,2015-064A,2026-06-09T04:46:32.839680,15.27315792,.0009903,97.3062,298.6249,212.1232,147.9405,0,U,41026,999,58946,.24951E-3,.6612E-4,0
YAOGAN-29,2015-069A,2026-06-09T05:11:51.012096,14.83077147,.0002876,98.0033,188.8367,66.6060,293.5456,0,U,41038,999,56944,.59825E-5,-.5E-7,0
KENT RIDGE 1,2015-077B,2026-06-09T02:36:21.593664,15.23082353,.0008247,14.9807,326.0677,124.4283,235.6819,0,U,41167,999,57986,.11854E-3,.3643E-4,0
GAOFEN-4,2015-083A,2026-06-08T14:20:42.251136,1.00273550,.00041656,0.3341,83.8441,111.8448,22.1741,0,U,41194,999,3844,0,-.319E-5,0
JASON-3,2016-002A,2026-06-09T03:47:29.109120,12.87627822,.0008593,66.0392,142.7156,273.0694,86.9342,0,U,41240,999,48621,.90439E-4,-.39E-6,0
SENTINEL-3A,2016-011A,2026-06-09T03:38:20.817312,14.26737751,.0001343,98.6249,227.6504,104.5625,255.5704,0,U,41335,999,53691,.50502E-4,.79E-6,0
ZIYUAN 3-02 (ZY 3-02),2016-033A,2026-06-09T05:33:33.545664,15.21403764,.0011566,97.3835,236.1580,321.5073,38.5336,0,U,41556,999,55677,.20628E-3,.4567E-4,0
CARTOSAT-2C,2016-040A,2026-06-09T03:45:55.332288,15.19255224,.0009921,97.4489,220.2447,156.4346,203.7345,0,U,41599,999,55249,.19543E-3,.4056E-4,0
SKYSAT-C1,2016-040C,2026-06-09T01:46:54.418080,15.36161908,.0004067,96.9571,192.2345,73.5041,286.6651,0,U,41601,999,55662,.21897E-3,.7642E-4,0
LAPAN-A3,2016-040E,2026-06-09T05:28:32.376000,15.33053526,.0011722,97.1487,156.6357,51.5802,308.6491,0,U,41603,999,55359,.96135E-4,.3E-4,0
GAOFEN-3,2016-049A,2026-06-09T04:11:49.550784,14.42214106,.0001238,98.4016,168.0820,99.9743,260.1586,0,U,41727,999,51749,-.99061E-5,-.76E-6,0
