HODOYOSHI-4             
1 40011U 14033B   26160.16694591  .00000460  00000+0  55469-4 0  9995
2 40011  97.5459 345.3771 0023240 336.1298  23.8840 14.88108424647619
DEIMOS-2                
1 40013U 14033D   26160.21148955  .00002341  00000+0  22643-3 0  9998
2 40013  97.5839  34.9802 0002062  58.7750 301.3672 14.93708884636536
HODOYOSHI-3             
1 40015U 14033F   26160.03396872  .00000984  00000+0  11938-3 0  9999
2 40015  97.6412 323.4033 0033406  23.9696 336.3065 14.85371568646415
SPOT 7                  
1 40053U 14034A   26160.16834365  .00000508  00000+0  11298-3 0  9991
2 40053  98.0627 222.8664 0001173  84.9935 275.1400 14.60952042635967
SKYSAT-B                
1 40072U 14037D   26160.12307830  .00001214  00000+0  13893-3 0  9991
2 40072  98.3834 118.6287 0004524 315.1194  44.9654 14.88006530644766
WORLDVIEW-3 (WV-3)      
1 40115U 14048A   26160.14907233  .00000731  00000+0  91900-4 0  9995
2 40115  97.8565 235.0928 0001599  38.1675 321.9652 14.85008642640710
GAOFEN-2                
1 40118U 14049A   26160.20334503  .00000731  00000+0  10154-3 0  9991
2 40118  98.0107 224.4180 0005894 258.8115 101.2434 14.80890714638057
YAOGAN-21               
1 40143U 14053A   26160.16434112  .00005042  00000+0  19703-3 0  9995
2 40143  97.1481 200.7448 0009796 116.5246 243.6999 15.26253568653734
YAOGAN-22               
1 40275U 14063A   26160.12427610 -.00000015  00000+0  85438-4 0  9998
2 40275 100.7714 311.2640 0006160 203.6209 156.4620 13.15530987558758
ASNARO                  
1 40298U 14070A   26160.19040052  .00007556  00000+0  36075-3 0  9997
2 40298  97.3449 236.5212 0004811 190.3731 169.7405 15.19317687642798
YAOGAN-24               
1 40310U 14072A   26160.21944138  .00000941  00000+0  14362-3 0  9991
2 40310  98.1479 297.4907 0012668 292.0595  67.9269 14.76213866622543
CBERS 4                 
1 40336U 14079A   26160.16088678  .00000108  00000+0  52304-4 0  9992
2 40336  98.3531 217.2440 0001999  71.5701 288.5702 14.35507172602809
YAOGAN-26               
1 40362U 14088A   26160.24312465  .00023585  00000+0  46725-3 0  9997
2 40362  97.0646 160.6405 0006631  85.0472 275.1536 15.47033008636479
SMAP                    
1 40376U 15003A   26160.14821859  .00000410  00000+0  88416-4 0  9997
2 40376  98.1276 167.3567 0001273  93.5288 266.6060 14.63359515606446
KOMPSAT-3A              
1 40536U 15014A   26160.06301284  .00020547  00000+0  30243-3 0  9990
2 40536  97.6887 150.8335 0055802 204.0181 155.8467 15.53621130620557
SENTINEL-2A             
1 40697U 15028A   26160.17272307  .00000217  00000+0  99290-4 0  9998
2 40697  98.5679 235.1379 0001074  87.2143 272.9162 14.30821971572581
GAOFEN-8                
1 40701U 15030A   26160.19032715  .00014626  00000+0  30484-3 0  9994
2 40701  97.6917 353.0821 0008078 216.2826 143.7875 15.45656621610211
CARBONITE 1 (CBNT-1)    
1 40718U 15032D   26160.22387102  .00000791  00000+0  10204-3 0  9997
2 40718  97.6511 338.6244 0013767 326.3614  33.6725 14.83561067588165
YAOGAN-27               
1 40878U 15040A   26160.19841432 -.00000288  00000+0 -64664-3 0  9992
2 40878 100.1154 146.9281 0007492 230.5737 129.4714 13.16068120516616
GAOFEN-9 01             
1 40894U 15047A   26160.23511053  .00000870  00000+0  11292-3 0  9999
2 40894  97.6278 196.2910 0027801 163.1669 197.0474 14.82868402579011
YAOGAN-28               
1 41026U 15064A   26160.19899120  .00006612  00000+0  24951-3 0  9991
2 41026  97.3062 298.6249 0009903 212.1232 147.9405 15.27315792589460
YAOGAN-29               
1 41038U 15069A   26160.21656264 -.00000005  00000+0  59825-5 0  9993
2 41038  98.0033 188.8367 0002876  66.6060 293.5456 14.83077147569443
KENT RIDGE 1            
1 41167U 15077B   26160.10858326  .00003643  00000+0  11854-3 0  9994
2 41167  14.9807 326.0677 0008247 124.4283 235.6819 15.23082353579867
GAOFEN-4                
1 41194U 15083A   26159.59771124 -.00000319  00000+0  00000+0 0  9997
2 41194   0.3341  83.8441 0004165 111.8448  22.1741  1.00273550 38442
JASON-3                 
1 41240U 16002A   26160.15797580 -.00000039  00000+0  90439-4 0  9998
2 41240  66.0392 142.7156 0008593 273.0694  86.9342 12.87627822486219
SENTINEL-3A             
1 41335U 16011A   26160.15162983  .00000079  00000+0  50502-4 0  9996
2 41335  98.6249 227.6504 0001343 104.5625 255.5704 14.26737751536911
ZIYUAN 3-02 (ZY 3-02)   
1 41556U 16033A   26160.23163826  .00004567  00000+0  20628-3 0  9992
2 41556  97.3835 236.1580 0011566 321.5073  38.5336 15.21403764556774
CARTOSAT-2C             
1 41599U 16040A   26160.15689042  .00004056  00000+0  19543-3 0  9998
2 41599  97.4489 220.2447 0009921 156.4346 203.7345 15.19255224552497
SKYSAT-C1               
1 41601U 16040C   26160.07424095  .00007642  00000+0  21897-3 0  9997
2 41601  96.9571 192.2345 0004067  73.5041 286.6651 15.36161908556622
LAPAN-A3                
1 41603U 16040E   26160.22815250  .00003000  00000+0  96135-4 0  9995
2 41603  97.1487 156.6357 0011722  51.5802 308.6491 15.33053526553590
GAOFEN-3                
1 41727U 16049A   26160.17487906 -.00000076  00000+0 -99061-5 0  9992
2 41727  98.4016 168.0820 0001238  99.9743 260.1586 14.42214106517490
